[
    {
        "OBJECT_NAME": "BEIDOU-2 IGSO-5",
        "OBJECT_ID": "2011-073A",
        "EPOCH": "2025-05-02T21:40:20.352576",
        "MEAN_MOTION": 1.00258581,
        "ECCENTRICITY": 0.0103224,
        "INCLINATION": 48.4277,
        "RA_OF_ASC_NODE": 276.6018,
        "ARG_OF_PERICENTER": 218.9249,
        "MEAN_ANOMALY": 145.057,
        "EPHEMERIS_TYPE": 0,
        "CLASSIFICATION_TYPE": "U",
        "NORAD_CAT_ID": 37948,
        "ELEMENT_SET_NO": 999,
        "REV_AT_EPOCH": 4929,
        "BSTAR": 0,
        "MEAN_MOTION_DOT": -1.96e-06,
        "MEAN_MOTION_DDOT": 0
    },
    {
        "OBJECT_NAME": "BEIDOU-2 G5",
        "OBJECT_ID": "2012-008A",
        "EPOCH": "2025-05-03T23:11:50.593920",
        "MEAN_MOTION": 1.00268624,
        "ECCENTRICITY": 0.001076,
        "INCLINATION": 2.556,
        "RA_OF_ASC_NODE": 71.2559,
        "ARG_OF_PERICENTER": 264.9991,
        "MEAN_ANOMALY": 292.5104,
        "EPHEMERIS_TYPE": 0,
        "CLASSIFICATION_TYPE": "U",
        "NORAD_CAT_ID": 38091,
        "ELEMENT_SET_NO": 999,
        "REV_AT_EPOCH": 4826,
        "BSTAR": 0,
        "MEAN_MOTION_DOT": 4.8e-07,
        "MEAN_MOTION_DDOT": 0
    },
    {
        "OBJECT_NAME": "BEIDOU-2 M3",
        "OBJECT_ID": "2012-018A",
        "EPOCH": "2025-05-02T22:55:22.886400",
        "MEAN_MOTION": 1.8623364,
        "ECCENTRICITY": 0.0020494,
        "INCLINATION": 56.1026,
        "RA_OF_ASC_NODE": 318.6639,
        "ARG_OF_PERICENTER": 271.1468,
        "MEAN_ANOMALY": 88.6249,
        "EPHEMERIS_TYPE": 0,
        "CLASSIFICATION_TYPE": "U",
        "NORAD_CAT_ID": 38250,
        "ELEMENT_SET_NO": 999,
        "REV_AT_EPOCH": 8830,
        "BSTAR": 0,
        "MEAN_MOTION_DOT": -6.8e-07,
        "MEAN_MOTION_DDOT": 0
    },
    {
        "OBJECT_NAME": "BEIDOU-2 M4",
        "OBJECT_ID": "2012-018B",
        "EPOCH": "2025-05-02T21:17:06.226368",
        "MEAN_MOTION": 1.86232061,
        "ECCENTRICITY": 0.0011433,
        "INCLINATION": 56.0063,
        "RA_OF_ASC_NODE": 317.9132,
        "ARG_OF_PERICENTER": 275.6797,
        "MEAN_ANOMALY": 84.1955,
        "EPHEMERIS_TYPE": 0,
        "CLASSIFICATION_TYPE": "U",
        "NORAD_CAT_ID": 38251,
        "ELEMENT_SET_NO": 999,
        "REV_AT_EPOCH": 8865,
        "BSTAR": 0,
        "MEAN_MOTION_DOT": -6.7e-07,
        "MEAN_MOTION_DDOT": 0
    },
    {
        "OBJECT_NAME": "BEIDOU-2 M6",
        "OBJECT_ID": "2012-050B",
        "EPOCH": "2025-05-03T03:12:47.892096",
        "MEAN_MOTION": 1.86230998,
        "ECCENTRICITY": 0.0014614,
        "INCLINATION": 56.1842,
        "RA_OF_ASC_NODE": 76.4913,
        "ARG_OF_PERICENTER": 341.9197,
        "MEAN_ANOMALY": 17.9972,
        "EPHEMERIS_TYPE": 0,
        "CLASSIFICATION_TYPE": "U",
        "NORAD_CAT_ID": 38775,
        "ELEMENT_SET_NO": 999,
        "REV_AT_EPOCH": 8567,
        "BSTAR": 0,
        "MEAN_MOTION_DOT": -1.4e-07,
        "MEAN_MOTION_DDOT": 0
    },
    {
        "OBJECT_NAME": "BEIDOU-2 G6",
        "OBJECT_ID": "2012-059A",
        "EPOCH": "2025-05-03T21:14:02.507136",
        "MEAN_MOTION": 1.00272854,
        "ECCENTRICITY": 0.0010345,
        "INCLINATION": 3.3826,
        "RA_OF_ASC_NODE": 77.7263,
        "ARG_OF_PERICENTER": 310.677,
        "MEAN_ANOMALY": 236.1669,
        "EPHEMERIS_TYPE": 0,
        "CLASSIFICATION_TYPE": "U",
        "NORAD_CAT_ID": 38953,
        "ELEMENT_SET_NO": 999,
        "REV_AT_EPOCH": 4580,
        "BSTAR": 0,
        "MEAN_MOTION_DOT": -1.85e-06,
        "MEAN_MOTION_DDOT": 0
    },
    {
        "OBJECT_NAME": "BEIDOU-3S IGSO-1S",
        "OBJECT_ID": "2015-019A",
        "EPOCH": "2025-05-01T23:23:40.272288",
        "MEAN_MOTION": 1.00287842,
        "ECCENTRICITY": 0.0038412,
        "INCLINATION": 49.9741,
        "RA_OF_ASC_NODE": 300.3973,
        "ARG_OF_PERICENTER": 190.8805,
        "MEAN_ANOMALY": 173.4956,
        "EPHEMERIS_TYPE": 0,
        "CLASSIFICATION_TYPE": "U",
        "NORAD_CAT_ID": 40549,
        "ELEMENT_SET_NO": 999,
        "REV_AT_EPOCH": 3695,
        "BSTAR": 0,
        "MEAN_MOTION_DOT": -1.75e-06,
        "MEAN_MOTION_DDOT": 0
    },
    {
        "OBJECT_NAME": "BEIDOU-3S M2S",
        "OBJECT_ID": "2015-037A",
        "EPOCH": "2025-05-03T02:08:58.892928",
        "MEAN_MOTION": 1.86229147,
        "ECCENTRICITY": 0.0007876,
        "INCLINATION": 55.2289,
        "RA_OF_ASC_NODE": 316.1256,
        "ARG_OF_PERICENTER": 261.9928,
        "MEAN_ANOMALY": 97.9209,
        "EPHEMERIS_TYPE": 0,
        "CLASSIFICATION_TYPE": "U",
        "NORAD_CAT_ID": 40748,
        "ELEMENT_SET_NO": 999,
        "REV_AT_EPOCH": 6648,
        "BSTAR": 0,
        "MEAN_MOTION_DOT": -6.7e-07,
        "MEAN_MOTION_DDOT": 0
    },
    {
        "OBJECT_NAME": "BEIDOU-3S M1S",
        "OBJECT_ID": "2015-037B",
        "EPOCH": "2025-05-02T19:29:54.454848",
        "MEAN_MOTION": 1.86253796,
        "ECCENTRICITY": 0.0003997,
        "INCLINATION": 55.2257,
        "RA_OF_ASC_NODE": 316.1275,
        "ARG_OF_PERICENTER": 23.9349,
        "MEAN_ANOMALY": 336.0866,
        "EPHEMERIS_TYPE": 0,
        "CLASSIFICATION_TYPE": "U",
        "NORAD_CAT_ID": 40749,
        "ELEMENT_SET_NO": 999,
        "REV_AT_EPOCH": 6648,
        "BSTAR": 0,
        "MEAN_MOTION_DOT": -6.7e-07,
        "MEAN_MOTION_DDOT": 0
    },
    {
        "OBJECT_NAME": "BEIDOU-3S IGSO-2S",
        "OBJECT_ID": "2015-053A",
        "EPOCH": "2025-05-03T20:17:38.562144",
        "MEAN_MOTION": 1.00277569,
        "ECCENTRICITY": 0.0058268,
        "INCLINATION": 49.8579,
        "RA_OF_ASC_NODE": 263.6364,
        "ARG_OF_PERICENTER": 186.8883,
        "MEAN_ANOMALY": 171.9774,
        "EPHEMERIS_TYPE": 0,
        "CLASSIFICATION_TYPE": "U",
        "NORAD_CAT_ID": 40938,
        "ELEMENT_SET_NO": 999,
        "REV_AT_EPOCH": 3524,
        "BSTAR": 0,
        "MEAN_MOTION_DOT": -1.57e-06,
        "MEAN_MOTION_DDOT": 0
    },
    {
        "OBJECT_NAME": "BEIDOU-2 IGSO-6",
        "OBJECT_ID": "2016-021A",
        "EPOCH": "2025-05-02T18:13:54.687072",
        "MEAN_MOTION": 1.00294807,
        "ECCENTRICITY": 0.00537,
        "INCLINATION": 59.6491,
        "RA_OF_ASC_NODE": 42.1349,
        "ARG_OF_PERICENTER": 230.2055,
        "MEAN_ANOMALY": 314.2988,
        "EPHEMERIS_TYPE": 0,
        "CLASSIFICATION_TYPE": "U",
        "NORAD_CAT_ID": 41434,
        "ELEMENT_SET_NO": 999,
        "REV_AT_EPOCH": 3336,
        "BSTAR": 0,
        "MEAN_MOTION_DOT": -1.65e-06,
        "MEAN_MOTION_DDOT": 0
    }
]