BEIDOU-2 IGSO-5 (C10)   
1 37948U 11073A   25122.90301334 -.00000196  00000+0  00000+0 0  9993
2 37948  48.4277 276.6018 0103224 218.9249 145.0570  1.00258581 49298
BEIDOU-2 G5 (C05)       
1 38091U 12008A   25123.96655780  .00000048  00000+0  00000+0 0  9991
2 38091   2.5560  71.2559 0010760 264.9991 292.5104  1.00268624 48266
BEIDOU-2 M3 (C11)       
1 38250U 12018A   25122.95512600 -.00000068  00000+0  00000+0 0  9993
2 38250  56.1026 318.6639 0020494 271.1468  88.6249  1.86233640 88303
BEIDOU-2 M4 (C12)       
1 38251U 12018B   25122.88687762 -.00000067  00000+0  00000+0 0  9997
2 38251  56.0063 317.9132 0011433 275.6797  84.1955  1.86232061 88650
BEIDOU-2 M6 (C14)       
1 38775U 12050B   25123.13388764 -.00000014  00000+0  00000+0 0  9995
2 38775  56.1842  76.4913 0014614 341.9197  17.9972  1.86230998 85675
BEIDOU-2 G6 (C02)       
1 38953U 12059A   25123.88475124 -.00000185  00000+0  00000+0 0  9990
2 38953   3.3826  77.7263 0010345 310.6770 236.1669  1.00272854 45800
BEIDOU-3S IGSO-1S (C31) 
1 40549U 15019A   25121.97477167 -.00000175  00000+0  00000+0 0  9999
2 40549  49.9741 300.3973 0038412 190.8805 173.4956  1.00287842 36952
BEIDOU-3S M2S (C58)     
1 40748U 15037A   25123.08957052 -.00000067  00000+0  00000+0 0  9990
2 40748  55.2289 316.1256 0007876 261.9928  97.9209  1.86229147 66485
BEIDOU-3S M1S (C57)     
1 40749U 15037B   25122.81243582 -.00000067  00000+0  00000+0 0  9997
2 40749  55.2257 316.1275 0003997  23.9349 336.0866  1.86253796 66488
BEIDOU-3S IGSO-2S (C56) 
1 40938U 15053A   25123.84558521 -.00000157  00000+0  00000+0 0  9991
2 40938  49.8579 263.6364 0058268 186.8883 171.9774  1.00277569 35246
BEIDOU-2 IGSO-6 (C13)   
1 41434U 16021A   25122.75966073 -.00000165  00000+0  00000+0 0  9992
2 41434  59.6491  42.1349 0053700 230.2055 314.2988  1.00294807 33368
